SUOMI NPP               
1 37849U 11061A   26169.60929254  .00000055  00000+0  47084-4 0  9997
2 37849  98.7953 110.4756 0001456   3.3942 356.7244 14.19517636758649
YAOGAN-12               
1 37875U 11066B   26169.57669537  .00007245  00000+0  27890-3 0  9992
2 37875  97.1134 208.0801 0008863 211.3561 148.7152 15.26619247812259
BEIDOU-2 M4             
1 38251U 12018B   26167.58401999 -.00000071  00000+0  00000+0 0  9995
2 38251  55.6586 304.1100 0011291 275.7806  84.0759  1.86229375 95936
ARIRANG-3 (KOMPSAT-3)   
1 38338U 12025B   26169.60661376  .00000327  00000+0  74138-4 0  9992
2 38338  98.1171 127.0421 0006720 105.8328 254.3615 14.62207188751551
METOP-B                 
1 38771U 12049A   26169.59745112  .00000088  00000+0  60272-4 0  9996
2 38771  98.6504 221.0686 0002147  16.0748 344.0497 14.21433119713466
SJ-9A                   
1 38860U 12056A   26169.57901348  .00000755  00000+0  93221-4 0  9997
2 38860  97.6709 141.4801 0024022 251.8038 108.0562 14.85480732699795
COSMOS 2484 (RODNIK-S 6)
1 39059U 13001C   26169.59496080  .00000046  00000+0  26060-3 0  9992
2 39059  82.5009 221.0175 0026821  33.6383 326.6393 12.42939349608737
SARAL                   
1 39086U 13009A   26169.57718734  .00000059  00000+0  37607-4 0  9995
2 39086  98.5557 356.1267 0000665 299.5401  60.5716 14.32856247695809
STRAND-1                
1 39090U 13009E   26169.44844385  .00000197  00000+0  80676-4 0  9995
2 39090  98.3922 349.6518 0007793 221.0490 139.0111 14.37163853697241
BRITE-AUSTRIA           
1 39091U 13009F   26169.32256041  .00000128  00000+0  58246-4 0  9991
2 39091  98.3995 348.7301 0009190 232.6910 127.3439 14.36542508697217
GAOFEN-1                
1 39150U 13018A   26169.62165155  .00000542  00000+0  84853-4 0  9998
2 39150  97.9094 241.6606 0015681 261.4713  98.4720 14.76538110708458
NEE-01 PEGASO           
1 39151U 13018B   26169.33746021  .00002315  00000+0  22456-3 0  9994
2 39151  98.1225 313.5252 0013220 155.6183 204.5663 14.93664438710873
PROBA-V                 
1 39159U 13021A   26169.38428134  .00000046  00000+0  38301-4 0  9999
2 39159  98.3584 147.9318 0005185 120.6226 239.5465 14.23597149681281
ARIRANG-5 (KOMPSAT-5)   
1 39227U 13042A   26169.56279767  .00000444  00000+0  36042-4 0  9996
2 39227  97.6200 356.2436 0005425 117.1602 243.0178 15.04493989704066
GONETS-M 5              
1 39249U 13048A   26169.56385593  .00000022  00000+0  91401-4 0  9993
2 39249  82.4828 342.5232 0016144 207.2468 152.7766 12.42891864579052
GONETS-M 7              
1 39251U 13048C   26169.60728402  .00000043  00000+0  23964-3 0  9992
2 39251  82.4895 345.4192 0016922 208.5656 151.4498 12.42914773579012
FENGYUN 3C              
1 39260U 13052A   26169.59863134  .00000073  00000+0  58412-4 0  9997
2 39260  98.4987 143.4086 0015177  23.7386 336.4485 14.15755348658761
CASSIOPE                
1 39265U 13055A   26169.53969705  .00043358 -51576-6  47229-3 0  9998
2 39265  80.9137  65.0794 0292361  57.9071 305.0185 15.25303484667879
APRIZESAT 7             
1 39416U 13066A   26169.36149500  .00000949  00000+0  99276-4 0  9999
2 39416  97.7709 122.5645 0035089 205.3037 154.6464 14.91566307681405
ZACUBE-1 (TSHEPISOSAT)  
1 39417U 13066B   26169.34046200  .00002374  00000+0  18681-3 0  9995
2 39417  97.8077 131.6833 0040949 243.7163 115.9851 15.01194004680909
APRIZESAT 8             
1 39425U 13066K   26169.28488904  .00000746  00000+0  86790-4 0  9996
2 39425  97.8221 116.7374 0044400 282.8266  76.7992 14.87654398679837
